STARLINK-4640           
1 53728U 22107AE  26068.88442455  .00001482  00000+0  11124-3 0  9995
2 53728  53.2166 253.2017 0001212  96.1945 263.9186 15.08824415194580
LEMUR-2-KREMPEL-BRO2    
1 63353U 25061C   26068.86379736  .00007837  00000+0  44347-3 0  9994
2 63353  97.5616  45.5365 0017924 236.8576 123.0936 15.13192951 52585
