[{"OBJECT_NAME":"STARLINK-4640","OBJECT_ID":"2022-107AE","EPOCH":"2026-03-09T21:13:34.281120","MEAN_MOTION":15.08824415,"ECCENTRICITY":0.00012121,"INCLINATION":53.2166,"RA_OF_ASC_NODE":253.2017,"ARG_OF_PERICENTER":96.1945,"MEAN_ANOMALY":263.9186,"EPHEMERIS_TYPE":0,"CLASSIFICATION_TYPE":"U","NORAD_CAT_ID":53728,"ELEMENT_SET_NO":999,"REV_AT_EPOCH":19458,"BSTAR":0.00011123805,"MEAN_MOTION_DOT":1.482e-5,"MEAN_MOTION_DDOT":0},{"OBJECT_NAME":"LEMUR-2-KREMPEL-BRO2","OBJECT_ID":"2025-061C","EPOCH":"2026-03-09T20:43:52.091904","MEAN_MOTION":15.13192951,"ECCENTRICITY":0.00179248,"INCLINATION":97.5616,"RA_OF_ASC_NODE":45.5365,"ARG_OF_PERICENTER":236.8576,"MEAN_ANOMALY":123.0936,"EPHEMERIS_TYPE":0,"CLASSIFICATION_TYPE":"U","NORAD_CAT_ID":63353,"ELEMENT_SET_NO":999,"REV_AT_EPOCH":5258,"BSTAR":0.00044346981,"MEAN_MOTION_DOT":7.837e-5,"MEAN_MOTION_DDOT":0}]
